[{"OBJECT_NAME":"NUSAT-44 (MARIA MITCHELL)","OBJECT_ID":"2024-043AA","EPOCH":"2026-03-09T22:12:18.524160","MEAN_MOTION":15.29764305,"ECCENTRICITY":0.0007331,"INCLINATION":97.5299,"RA_OF_ASC_NODE":207.7691,"ARG_OF_PERICENTER":214.9017,"MEAN_ANOMALY":145.1743,"EPHEMERIS_TYPE":0,"CLASSIFICATION_TYPE":"U","NORAD_CAT_ID":59122,"ELEMENT_SET_NO":999,"REV_AT_EPOCH":11209,"BSTAR":0.00061063193,"MEAN_MOTION_DOT":0.00017562,"MEAN_MOTION_DDOT":0},{"OBJECT_NAME":"STARLINK-34148","OBJECT_ID":"2025-110R","EPOCH":"2026-03-09T07:09:25.099488","MEAN_MOTION":15.30202129,"ECCENTRICITY":0.00013984,"INCLINATION":53.1605,"RA_OF_ASC_NODE":28.5011,"ARG_OF_PERICENTER":85.5647,"MEAN_ANOMALY":274.5513,"EPHEMERIS_TYPE":0,"CLASSIFICATION_TYPE":"U","NORAD_CAT_ID":64111,"ELEMENT_SET_NO":999,"REV_AT_EPOCH":4582,"BSTAR":0.00055698401,"MEAN_MOTION_DOT":0.00016174,"MEAN_MOTION_DDOT":0}]
